[{"OBJECT_NAME":"IRIDIUM 156","OBJECT_ID":"2018-061H","EPOCH":"2026-03-09T13:23:10.368096","MEAN_MOTION":14.34217428,"ECCENTRICITY":0.0001926,"INCLINATION":86.3916,"RA_OF_ASC_NODE":98.4058,"ARG_OF_PERICENTER":95.842,"MEAN_ANOMALY":264.2995,"EPHEMERIS_TYPE":0,"CLASSIFICATION_TYPE":"U","NORAD_CAT_ID":43576,"ELEMENT_SET_NO":999,"REV_AT_EPOCH":39909,"BSTAR":-1.5896e-5,"MEAN_MOTION_DOT":-2.5e-7,"MEAN_MOTION_DDOT":0},{"OBJECT_NAME":"CZ-6A DEB","OBJECT_ID":"2024-140CU","EPOCH":"2026-03-09T01:01:10.642656","MEAN_MOTION":14.46717014,"ECCENTRICITY":0.00796136,"INCLINATION":89.0302,"RA_OF_ASC_NODE":285.5577,"ARG_OF_PERICENTER":272.4041,"MEAN_ANOMALY":86.8051,"EPHEMERIS_TYPE":0,"CLASSIFICATION_TYPE":"U","NORAD_CAT_ID":60691,"ELEMENT_SET_NO":999,"REV_AT_EPOCH":8334,"BSTAR":0.0002243888,"MEAN_MOTION_DOT":8.59e-6,"MEAN_MOTION_DDOT":0}]
